{
  "type": "FeatureCollection",
  "features": [
    {
      "type": "Feature",
      "properties": {
        "norad_id": 66948,
        "name": "STARLINK-36116",
        "group": "last-30-days",
        "lat": 32.68942208076157,
        "lon": 128.0214539324185,
        "alt_km": 410.0215190575782,
        "timestamp": "2025-12-27T13:34:48.008767+00:00",
        "meta_object_name": "STARLINK-36116",
        "meta_object_id": "2025-286Z",
        "meta_epoch": "2025-12-27T06:00:02.000160",
        "meta_mean_motion": 15.51937336,
        "meta_eccentricity": 0.00014126,
        "meta_inclination": 53.1597,
        "meta_ra_of_asc_node": 338.2952,
        "meta_arg_of_pericenter": 86.3213,
        "meta_mean_anomaly": 86.4176,
        "meta_ephemeris_type": 0,
        "meta_classification_type": "U",
        "meta_norad_cat_id": 66948,
        "meta_element_set_no": 999,
        "meta_rev_at_epoch": 432,
        "meta_bstar": -0.032696852,
        "meta_mean_motion_dot": -0.0177577,
        "meta_mean_motion_ddot": 0,
        "tle_line1": "1 66948U 25286Z   25361.25002315 -.01775770  00000+0 -32697-1 0  9994",
        "tle_line2": "2 66948  53.1597 338.2952 0001412  86.3213  86.4176 15.51937336  4322"
      },
      "geometry": {
        "type": "Point",
        "coordinates": [
          128.0214539324185,
          32.68942208076157
        ]
      }
    },
    {
      "type": "Feature",
      "properties": {
        "norad_id": 66949,
        "name": "STARLINK-36096",
        "group": "last-30-days",
        "lat": 29.955411085061698,
        "lon": 131.17331926372012,
        "alt_km": 410.6138034375581,
        "timestamp": "2025-12-27T13:34:48.008776+00:00",
        "meta_object_name": "STARLINK-36096",
        "meta_object_id": "2025-286AA",
        "meta_epoch": "2025-12-27T06:00:02.000160",
        "meta_mean_motion": 15.51923911,
        "meta_eccentricity": 0.0001462,
        "meta_inclination": 53.1597,
        "meta_ra_of_asc_node": 338.2879,
        "meta_arg_of_pericenter": 75.4133,
        "meta_mean_anomaly": 101.1614,
        "meta_ephemeris_type": 0,
        "meta_classification_type": "U",
        "meta_norad_cat_id": 66949,
        "meta_element_set_no": 999,
        "meta_rev_at_epoch": 432,
        "meta_bstar": -0.032080786,
        "meta_mean_motion_dot": -0.0174522,
        "meta_mean_motion_ddot": 0,
        "tle_line1": "1 66949U 25286AA  25361.25002315 -.01745220  00000+0 -32081-1 0  9999",
        "tle_line2": "2 66949  53.1597 338.2879 0001462  75.4133 101.1614 15.51923911  4322"
      },
      "geometry": {
        "type": "Point",
        "coordinates": [
          131.17331926372012,
          29.955411085061698
        ]
      }
    },
    {
      "type": "Feature",
      "properties": {
        "norad_id": 66950,
        "name": "STARLINK-36111",
        "group": "last-30-days",
        "lat": 27.1535275858297,
        "lon": 134.14910575121723,
        "alt_km": 411.2033456238787,
        "timestamp": "2025-12-27T13:34:48.008789+00:00",
        "meta_object_name": "STARLINK-36111",
        "meta_object_id": "2025-286AB",
        "meta_epoch": "2025-12-27T06:00:02.000160",
        "meta_mean_motion": 15.51936212,
        "meta_eccentricity": 0.00014135,
        "meta_inclination": 53.1595,
        "meta_ra_of_asc_node": 338.2795,
        "meta_arg_of_pericenter": 73.4869,
        "meta_mean_anomaly": 106.9194,
        "meta_ephemeris_type": 0,
        "meta_classification_type": "U",
        "meta_norad_cat_id": 66950,
        "meta_element_set_no": 999,
        "meta_rev_at_epoch": 432,
        "meta_bstar": -0.032701696,
        "meta_mean_motion_dot": -0.01775941,
        "meta_mean_motion_ddot": 0,
        "tle_line1": "1 66950U 25286AB  25361.25002315 -.01775941  00000+0 -32702-1 0  9994",
        "tle_line2": "2 66950  53.1595 338.2795 0001413  73.4869 106.9194 15.51936212  4323"
      },
      "geometry": {
        "type": "Point",
        "coordinates": [
          134.14910575121723,
          27.1535275858297
        ]
      }
    },
    {
      "type": "Feature",
      "properties": {
        "norad_id": 66951,
        "name": "STARLINK-35999",
        "group": "last-30-days",
        "lat": 25.729358261269788,
        "lon": 135.58065121596732,
        "alt_km": 411.33890949907527,
        "timestamp": "2025-12-27T13:34:48.008801+00:00",
        "meta_object_name": "STARLINK-35999",
        "meta_object_id": "2025-286AC",
        "meta_epoch": "2025-12-27T06:00:02.000160",
        "meta_mean_motion": 15.51929273,
        "meta_eccentricity": 0.00013725,
        "meta_inclination": 53.1595,
        "meta_ra_of_asc_node": 338.2755,
        "meta_arg_of_pericenter": 82.238,
        "meta_mean_anomaly": 100.0866,
        "meta_ephemeris_type": 0,
        "meta_classification_type": "U",
        "meta_norad_cat_id": 66951,
        "meta_element_set_no": 999,
        "meta_rev_at_epoch": 432,
        "meta_bstar": -0.032375093,
        "meta_mean_motion_dot": -0.01759733,
        "meta_mean_motion_ddot": 0,
        "tle_line1": "1 66951U 25286AC  25361.25002315 -.01759733  00000+0 -32375-1 0  9992",
        "tle_line2": "2 66951  53.1595 338.2755 0001372  82.2380 100.0866 15.51929273  4320"
      },
      "geometry": {
        "type": "Point",
        "coordinates": [
          135.58065121596732,
          25.729358261269788
        ]
      }
    },
    {
      "type": "Feature",
      "properties": {
        "norad_id": 66952,
        "name": "STARLINK-36122",
        "group": "last-30-days",
        "lat": 28.56379543307481,
        "lon": 132.67952867278973,
        "alt_km": 410.8744809967011,
        "timestamp": "2025-12-27T13:34:48.008814+00:00",
        "meta_object_name": "STARLINK-36122",
        "meta_object_id": "2025-286AD",
        "meta_epoch": "2025-12-27T06:00:02.000160",
        "meta_mean_motion": 15.51930124,
        "meta_eccentricity": 0.00013539,
        "meta_inclination": 53.1595,
        "meta_ra_of_asc_node": 338.2835,
        "meta_arg_of_pericenter": 78.4991,
        "meta_mean_anomaly": 99.9906,
        "meta_ephemeris_type": 0,
        "meta_classification_type": "U",
        "meta_norad_cat_id": 66952,
        "meta_element_set_no": 999,
        "meta_rev_at_epoch": 432,
        "meta_bstar": -0.032375399,
        "meta_mean_motion_dot": -0.01759787,
        "meta_mean_motion_ddot": 0,
        "tle_line1": "1 66952U 25286AD  25361.25002315 -.01759787  00000+0 -32375-1 0  9992",
        "tle_line2": "2 66952  53.1595 338.2835 0001353  78.4991  99.9906 15.51930124  4322"
      },
      "geometry": {
        "type": "Point",
        "coordinates": [
          132.67952867278973,
          28.56379543307481
        ]
      }
    },
    {
      "type": "Feature",
      "properties": {
        "norad_id": 66953,
        "name": "HULIANWANG DIGUI-114",
        "group": "last-30-days",
        "lat": 33.16724963324863,
        "lon": -16.937655601709906,
        "alt_km": 1016.0199698947335,
        "timestamp": "2025-12-27T13:34:48.008824+00:00",
        "meta_object_name": "HULIANWANG DIGUI-114",
        "meta_object_id": "2025-287A",
        "meta_epoch": "2025-12-20T09:09:14.655168",
        "meta_mean_motion": 13.66161866,
        "meta_eccentricity": 0.00096738,
        "meta_inclination": 86.496,
        "meta_ra_of_asc_node": 343.3747,
        "meta_arg_of_pericenter": 185.0352,
        "meta_mean_anomaly": 175.071,
        "meta_ephemeris_type": 0,
        "meta_classification_type": "U",
        "meta_norad_cat_id": 66953,
        "meta_element_set_no": 999,
        "meta_rev_at_epoch": 157,
        "meta_bstar": 3.033618e-06,
        "meta_mean_motion_dot": 1.9e-07,
        "meta_mean_motion_ddot": 0,
        "tle_line1": "1 66953U 25287A   25354.38141962  .00000019  00000+0  30336-5 0  9995",
        "tle_line2": "2 66953  86.4960 343.3747 0009673 185.0352 175.0710 13.66161866  1572"
      },
      "geometry": {
        "type": "Point",
        "coordinates": [
          -16.937655601709906,
          33.16724963324863
        ]
      }
    },
    {
      "type": "Feature",
      "properties": {
        "norad_id": 66954,
        "name": "HULIANWANG DIGUI-115",
        "group": "last-30-days",
        "lat": -0.895406520767853,
        "lon": -19.269848847659134,
        "alt_km": 1026.492020827498,
        "timestamp": "2025-12-27T13:34:48.008835+00:00",
        "meta_object_name": "HULIANWANG DIGUI-115",
        "meta_object_id": "2025-287B",
        "meta_epoch": "2025-12-24T22:10:56.489088",
        "meta_mean_motion": 13.63539042,
        "meta_eccentricity": 0.0003385,
        "meta_inclination": 86.5036,
        "meta_ra_of_asc_node": 341.7372,
        "meta_arg_of_pericenter": 109.9724,
        "meta_mean_anomaly": 250.1798,
        "meta_ephemeris_type": 0,
        "meta_classification_type": "U",
        "meta_norad_cat_id": 66954,
        "meta_element_set_no": 999,
        "meta_rev_at_epoch": 219,
        "meta_bstar": 8.442119e-06,
        "meta_mean_motion_dot": 2.3e-07,
        "meta_mean_motion_ddot": 0,
        "tle_line1": "1 66954U 25287B   25358.92426492  .00000023  00000+0  84421-5 0  9993",
        "tle_line2": "2 66954  86.5036 341.7372 0003385 109.9724 250.1798 13.63539042  2198"
      },
      "geometry": {
        "type": "Point",
        "coordinates": [
          -19.269848847659134,
          -0.895406520767853
        ]
      }
    }
  ]
}